[{"OBJECT_NAME":"CS1","OBJECT_ID":"2021-088B","EPOCH":"2026-03-09T18:02:30.253920","MEAN_MOTION":15.31848439,"ECCENTRICITY":0.00141292,"INCLINATION":97.3882,"RA_OF_ASC_NODE":132.1684,"ARG_OF_PERICENTER":78.0335,"MEAN_ANOMALY":282.249,"EPHEMERIS_TYPE":0,"CLASSIFICATION_TYPE":"U","NORAD_CAT_ID":49261,"ELEMENT_SET_NO":999,"REV_AT_EPOCH":24518,"BSTAR":0.00051175576,"MEAN_MOTION_DOT":0.00015722,"MEAN_MOTION_DDOT":0},{"OBJECT_NAME":"STARLINK-30142","OBJECT_ID":"2023-079P","EPOCH":"2026-03-09T03:35:01.920192","MEAN_MOTION":15.27563421,"ECCENTRICITY":9.284e-5,"INCLINATION":42.9981,"RA_OF_ASC_NODE":106.8569,"ARG_OF_PERICENTER":278.1929,"MEAN_ANOMALY":81.8818,"EPHEMERIS_TYPE":0,"CLASSIFICATION_TYPE":"U","NORAD_CAT_ID":56836,"ELEMENT_SET_NO":999,"REV_AT_EPOCH":15284,"BSTAR":-2.5056361e-5,"MEAN_MOTION_DOT":-9.51e-6,"MEAN_MOTION_DDOT":0}]
