CS1                     
1 49261U 21088B   26068.75173904  .00015722  00000+0  51176-3 0  9998
2 49261  97.3882 132.1684 0014129  78.0335 282.2490 15.31848439245182
STARLINK-30142          
1 56836U 23079P   26068.14932778 -.00000951  00000+0 -25056-4 0  9990
2 56836  42.9981 106.8569 0000928 278.1929  81.8818 15.27563421152845
